[
    {
        "Altitude(m)": 556565.803738796,
        "Argument of Periapsis(deg)": 0.026491964442854003,
        "Eccentricity": 0.0,
        "Inclination(deg)": 53.0,
        "Latitude(deg)": 38.17565865783182,
        "Longitude(deg)": -24.286364975356218,
        "Mean Anomaly(deg)": -230.54262852968964,
        "RAAN(deg)": 294.9605734741121,
        "Satellite Name": "Starlink Shell 1 1303",
        "Satellite Number": 1303,
        "Semi-Major Axis(m)": 6931778.249405717,
        "Time(s)": 760
    },
    {
        "Altitude(m)": 556482.4348540053,
        "Argument of Periapsis(deg)": 0.02684054292236524,
        "Eccentricity": 0.0,
        "Inclination(deg)": 53.0,
        "Latitude(deg)": 37.76836186150781,
        "Longitude(deg)": -23.723046462269888,
        "Mean Anomaly(deg)": -229.91579732613295,
        "RAAN(deg)": 294.9600547040346,
        "Satellite Name": "Starlink Shell 1 1303",
        "Satellite Number": 1303,
        "Semi-Major Axis(m)": 6931778.249405717,
        "Time(s)": 770
    },
    {
        "Altitude(m)": 556399.1363083166,
        "Argument of Periapsis(deg)": 0.027189121401876473,
        "Eccentricity": 0.0,
        "Inclination(deg)": 53.0,
        "Latitude(deg)": 37.35796844739692,
        "Longitude(deg)": -23.166342239457737,
        "Mean Anomaly(deg)": -229.28896612257623,
        "RAAN(deg)": 294.9595359339571,
        "Satellite Name": "Starlink Shell 1 1303",
        "Satellite Number": 1303,
        "Semi-Major Axis(m)": 6931778.249405717,
        "Time(s)": 780
    },
    {
        "Altitude(m)": 556315.9633701632,
        "Argument of Periapsis(deg)": 0.02753769988138771,
        "Eccentricity": 0.0,
        "Inclination(deg)": 53.0,
        "Latitude(deg)": 36.94455585387219,
        "Longitude(deg)": -22.616131534001504,
        "Mean Anomaly(deg)": -228.66213491901954,
        "RAAN(deg)": 294.9590171638797,
        "Satellite Name": "Starlink Shell 1 1303",
        "Satellite Number": 1303,
        "Semi-Major Axis(m)": 6931778.249405717,
        "Time(s)": 790
    },
    {
        "Altitude(m)": 556232.971453639,
        "Argument of Periapsis(deg)": 0.02788627836089895,
        "Eccentricity": 0.0,
        "Inclination(deg)": 53.0,
        "Latitude(deg)": 36.52819981573955,
        "Longitude(deg)": -22.072294205083715,
        "Mean Anomaly(deg)": -228.03530371546276,
        "RAAN(deg)": 294.9584983938022,
        "Satellite Name": "Starlink Shell 1 1303",
        "Satellite Number": 1303,
        "Semi-Major Axis(m)": 6931778.249405717,
        "Time(s)": 800
    },
    {
        "Altitude(m)": 556150.2160900831,
        "Argument of Periapsis(deg)": 0.02823485684041019,
        "Eccentricity": 0.0,
        "Inclination(deg)": 53.0,
        "Latitude(deg)": 36.10897439155071,
        "Longitude(deg)": -21.534710379585093,
        "Mean Anomaly(deg)": -227.40847251190607,
        "RAAN(deg)": 294.9579796237247,
        "Satellite Name": "Starlink Shell 1 1303",
        "Satellite Number": 1303,
        "Semi-Major Axis(m)": 6931778.249405717,
        "Time(s)": 810
    },
    {
        "Altitude(m)": 556067.7528995731,
        "Argument of Periapsis(deg)": 0.028583435319921423,
        "Eccentricity": 0.0,
        "Inclination(deg)": 53.0,
        "Latitude(deg)": 35.68695199212074,
        "Longitude(deg)": -21.003260076042952,
        "Mean Anomaly(deg)": -226.78164130834935,
        "RAAN(deg)": 294.9574608536472,
        "Satellite Name": "Starlink Shell 1 1303",
        "Satellite Number": 1303,
        "Semi-Major Axis(m)": 6931778.249405717,
        "Time(s)": 820
    },
    {
        "Altitude(m)": 555985.6375623061,
        "Argument of Periapsis(deg)": 0.028932013799432665,
        "Eccentricity": 0.0,
        "Inclination(deg)": 53.0,
        "Latitude(deg)": 35.262203410075664,
        "Longitude(deg)": -20.477824330445202,
        "Mean Anomaly(deg)": -226.1548101047926,
        "RAAN(deg)": 294.95694208356974,
        "Satellite Name": "Starlink Shell 1 1303",
        "Satellite Number": 1303,
        "Semi-Major Axis(m)": 6931778.249405717,
        "Time(s)": 830
    },
    {
        "Altitude(m)": 555903.9257899412,
        "Argument of Periapsis(deg)": 0.029280592278943897,
        "Eccentricity": 0.0,
        "Inclination(deg)": 53.0,
        "Latitude(deg)": 34.83479785027227,
        "Longitude(deg)": -19.958284798702735,
        "Mean Anomaly(deg)": -225.52797890123597,
        "RAAN(deg)": 294.95642331349234,
        "Satellite Name": "Starlink Shell 1 1303",
        "Satellite Number": 1303,
        "Semi-Major Axis(m)": 6931778.249405717,
        "Time(s)": 840
    },
    {
        "Altitude(m)": 555822.6732968449,
        "Argument of Periapsis(deg)": 0.029629170758455132,
        "Eccentricity": 0.0,
        "Inclination(deg)": 53.0,
        "Latitude(deg)": 34.404802960939705,
        "Longitude(deg)": -19.444523349249625,
        "Mean Anomaly(deg)": -224.9011476976792,
        "RAAN(deg)": 294.9559045434148,
        "Satellite Name": "Starlink Shell 1 1303",
        "Satellite Number": 1303,
        "Semi-Major Axis(m)": 6931778.249405717,
        "Time(s)": 850
    },
    {
        "Altitude(m)": 555741.9357712952,
        "Argument of Periapsis(deg)": 0.02997774923796637,
        "Eccentricity": 0.0,
        "Inclination(deg)": 53.0,
        "Latitude(deg)": 33.9722848654035,
        "Longitude(deg)": -18.936423327298215,
        "Mean Anomaly(deg)": -224.27431649412247,
        "RAAN(deg)": 294.95538577333735,
        "Satellite Name": "Starlink Shell 1 1303",
        "Satellite Number": 1303,
        "Semi-Major Axis(m)": 6931778.249405717,
        "Time(s)": 860
    },
    {
        "Altitude(m)": 555661.7688466784,
        "Argument of Periapsis(deg)": 0.030326327717477602,
        "Eccentricity": 0.0,
        "Inclination(deg)": 53.0,
        "Latitude(deg)": 33.53730819427172,
        "Longitude(deg)": -18.433868288869256,
        "Mean Anomaly(deg)": -223.64748529056578,
        "RAAN(deg)": 294.9548670032599,
        "Satellite Name": "Starlink Shell 1 1303",
        "Satellite Number": 1303,
        "Semi-Major Axis(m)": 6931778.249405717,
        "Time(s)": 870
    },
    {
        "Altitude(m)": 555582.2280726313,
        "Argument of Periapsis(deg)": 0.030674906196988847,
        "Eccentricity": 0.0,
        "Inclination(deg)": 53.0,
        "Latitude(deg)": 33.0999361179616,
        "Longitude(deg)": -17.936743248031206,
        "Mean Anomaly(deg)": -223.0206540870091,
        "RAAN(deg)": 294.95434823318243,
        "Satellite Name": "Starlink Shell 1 1303",
        "Satellite Number": 1303,
        "Semi-Major Axis(m)": 6931778.249405717,
        "Time(s)": 880
    },
    {
        "Altitude(m)": 555503.3688862094,
        "Argument of Periapsis(deg)": 0.031023484676500086,
        "Eccentricity": 0.0,
        "Inclination(deg)": 53.0,
        "Latitude(deg)": 32.66023037946641,
        "Longitude(deg)": -17.444934235427315,
        "Mean Anomaly(deg)": -222.3938228834523,
        "RAAN(deg)": 294.9538294631049,
        "Satellite Name": "Starlink Shell 1 1303",
        "Satellite Number": 1303,
        "Semi-Major Axis(m)": 6931778.249405717,
        "Time(s)": 890
    },
    {
        "Altitude(m)": 555425.246583033,
        "Argument of Periapsis(deg)": 0.03137206315601132,
        "Eccentricity": 0.0,
        "Inclination(deg)": 53.0,
        "Latitude(deg)": 32.2182513272663,
        "Longitude(deg)": -16.958327849549015,
        "Mean Anomaly(deg)": -221.7669916798956,
        "RAAN(deg)": 294.95331069302745,
        "Satellite Name": "Starlink Shell 1 1303",
        "Satellite Number": 1303,
        "Semi-Major Axis(m)": 6931778.249405717,
        "Time(s)": 900
    },
    {
        "Altitude(m)": 555347.9162884906,
        "Argument of Periapsis(deg)": 0.03172064163552255,
        "Eccentricity": 0.0,
        "Inclination(deg)": 53.0,
        "Latitude(deg)": 31.774057948290622,
        "Longitude(deg)": -16.47681231409118,
        "Mean Anomaly(deg)": -221.1401604763389,
        "RAAN(deg)": 294.95279192295,
        "Satellite Name": "Starlink Shell 1 1303",
        "Satellite Number": 1303,
        "Semi-Major Axis(m)": 6931778.249405717,
        "Time(s)": 910
    },
    {
        "Altitude(m)": 555271.4329289465,
        "Argument of Periapsis(deg)": 0.0320692201150338,
        "Eccentricity": 0.0,
        "Inclination(deg)": 53.0,
        "Latitude(deg)": 31.32770790086123,
        "Longitude(deg)": -16.000277016090713,
        "Mean Anomaly(deg)": -220.51332927278222,
        "RAAN(deg)": 294.9522731528725,
        "Satellite Name": "Starlink Shell 1 1303",
        "Satellite Number": 1303,
        "Semi-Major Axis(m)": 6931778.249405717,
        "Time(s)": 920
    },
    {
        "Altitude(m)": 555195.8512030443,
        "Argument of Periapsis(deg)": 0.032417798594545036,
        "Eccentricity": 0.0,
        "Inclination(deg)": 53.0,
        "Latitude(deg)": 30.879257547540806,
        "Longitude(deg)": -15.528612038144878,
        "Mean Anomaly(deg)": -219.88649806922552,
        "RAAN(deg)": 294.95175438279506,
        "Satellite Name": "Starlink Shell 1 1303",
        "Satellite Number": 1303,
        "Semi-Major Axis(m)": 6931778.249405717,
        "Time(s)": 930
    },
    {
        "Altitude(m)": 555121.2255530139,
        "Argument of Periapsis(deg)": 0.03276637707405627,
        "Eccentricity": 0.0,
        "Inclination(deg)": 53.0,
        "Latitude(deg)": 30.428761987821648,
        "Longitude(deg)": -15.061709197988007,
        "Mean Anomaly(deg)": -219.25966686566872,
        "RAAN(deg)": 294.95123561271754,
        "Satellite Name": "Starlink Shell 1 1303",
        "Satellite Number": 1303,
        "Semi-Major Axis(m)": 6931778.249405717,
        "Time(s)": 940
    }
]